NORAD_CAT_ID,OBJECT_NAME,OBJECT_TYPE,EPOCH,MEAN_MOTION,ECCENTRICITY,INCLINATION,RA_OF_ASC_NODE,ARG_OF_PERICENTER,MEAN_ANOMALY,BSTAR,MEAN_MOTION_DOT,MEAN_MOTION_DDOT,TLE_LINE0,TLE_LINE1,TLE_LINE2,SEMIMAJOR_AXIS,PERIOD,APOGEE,PERIGEE,DECAYED
52993.0,STARLINK-4264,PAYLOAD,2022-11-25 12:00:20,15.08839714,0.0002349,53.2207,81.9941,33.9741,326.1401,7.5204e-05,9.09e-06,0.0,0 STARLINK-4264,1 52993U 22076H   22329.50023893  .00000909  00000-0  75204-4 0  9993,2 52993  53.2207  81.9941 0002349  33.9741 326.1401 15.08839714 21653,6917.880999999999,95.438,541.371,538.121,0.0
52993.0,STARLINK-4264,PAYLOAD,2022-11-25 15:11:06,15.08843692,0.0002402,53.2193,81.3986,32.0925,328.0213,0.00010245,1.343e-05,0.0,0 STARLINK-4264,1 52993U 22076H   22329.63271575  .00001343  00000-0  10245-3 0  9995,2 52993  53.2193  81.3986 0002402  32.0925 328.0213 15.08843692 22141,6917.869000000002,95.437,541.396,538.072,0.0
52993.0,STARLINK-4264,PAYLOAD,2022-11-26 00:43:24,15.08850253,0.0002409,53.2196,79.6143,32.8265,327.2876,0.00017897,2.562e-05,0.0,0 STARLINK-4264,1 52993U 22076H   22330.03014816  .00002562  00000-0  17897-3 0  9998,2 52993  53.2196  79.6143 0002409  32.8265 327.2876 15.08850253 22205,6917.849,95.437,541.381,538.048,0.0
52993.0,STARLINK-4264,PAYLOAD,2022-11-26 13:26:30,15.08846792,0.0002524,53.2203,77.2358,35.7927,324.3234,0.00012296,1.669e-05,0.0,0 STARLINK-4264,1 52993U 22076H   22330.56007061  .00001669  00000-0  12296-3 0  9995,2 52993  53.2203  77.2358 0002524  35.7927 324.3234 15.08846792 21816,6917.86,95.437,541.471,537.979,0.0
52993.0,STARLINK-4264,PAYLOAD,2022-11-26 16:37:16,15.08845537,0.0002321,53.2187,76.6399,34.4663,325.6479,0.00015613,2.198e-05,0.0,0 STARLINK-4264,1 52993U 22076H   22330.69254977  .00002198  00000-0  15613-3 0  9993,2 52993  53.2187  76.6399 0002321  34.4663 325.6479 15.08845537 22309,6917.863,95.437,541.3340000000002,538.123,0.0
52993.0,STARLINK-4264,PAYLOAD,2022-11-27 13:17:17,15.08845715,0.0002241,53.2197,72.7738,34.1634,325.9502,-2.5427e-05,-6.93e-06,0.0,0 STARLINK-4264,1 52993U 22076H   22331.55367195 -.00000693  00000-0 -25427-4 0  9991,2 52993  53.2197  72.7738 0002241  34.1634 325.9502 15.08845715 22432,6917.863,95.437,541.278,538.178,0.0
52993.0,STARLINK-4264,PAYLOAD,2022-11-28 09:57:18,15.088402800000004,0.0002444,53.2203,68.9109,31.8482,328.2658,-1.5517e-05,-5.35e-06,0.0,0 STARLINK-4264,1 52993U 22076H   22332.41479354 -.00000535  00000-0 -15517-4 0  9992,2 52993  53.2203  68.9109 0002444  31.8482 328.2658 15.08840280 22091,6917.88,95.438,541.435,538.054,0.0
52993.0,STARLINK-4264,PAYLOAD,2022-11-28 13:08:04,15.08841716,0.0002494,53.2202,68.3164,29.8086,330.3048,-6.2547e-05,-1.284e-05,0.0,0 STARLINK-4264,1 52993U 22076H   22332.54727409 -.00001284  00000-0 -62547-4 0  9990,2 52993  53.2202  68.3164 0002494  29.8086 330.3048 15.08841716 22583,6917.875,95.437,541.465,538.015,0.0
52993.0,STARLINK-4264,PAYLOAD,2022-11-29 06:37:18,15.088319699999998,0.000256,53.2197,65.0458,27.5906,332.5222,0.00020037,2.901e-05,0.0,0 STARLINK-4264,1 52993U 22076H   22333.27590974  .00002901  00000-0  20037-3 0  9998,2 52993  53.2197  65.0458 0002560  27.5906 332.5222 15.08831970 22226,6917.905,95.438,541.5409999999998,537.999,0.0
52993.0,STARLINK-4264,PAYLOAD,2022-11-29 12:58:51,15.08830827,0.0002508,53.2199,63.8561,28.8235,331.2896,0.00015675,2.207e-05,0.0,0 STARLINK-4264,1 52993U 22076H   22333.54087324  .00002207  00000-0  15675-3 0  9999,2 52993  53.2199  63.8561 0002508  28.8235 331.2896 15.08830827 22267,6917.908,95.438,541.508,538.038,0.0
52993.0,STARLINK-4264,PAYLOAD,2022-11-30 04:52:43,15.08829982,0.0002558,53.2192,60.882,26.3325,333.7797,1.4092e-05,-6.4e-07,0.0,0 STARLINK-4264,1 52993U 22076H   22334.20328049 -.00000064  00000-0  14092-4 0  9998,2 52993  53.2192  60.8820 0002558  26.3325 333.7797 15.08829982 22833,6917.911,95.438,541.5459999999998,538.006,0.0
52993.0,STARLINK-4264,PAYLOAD,2022-11-30 12:49:39,15.08830839,0.0002573,53.2193,59.3959,27.5113,332.6015,2.0826e-05,4.3e-07,0.0,0 STARLINK-4264,1 52993U 22076H   22334.53448140  .00000043  00000-0  20826-4 0  9997,2 52993  53.2193  59.3959 0002573  27.5113 332.6015 15.08830839 22413,6917.908,95.438,541.553,537.993,0.0
52993.0,STARLINK-4264,PAYLOAD,2022-12-01 12:40:25,15.08838233,0.0002583999999999,53.2179,54.9355,26.4608,333.6515,7.6454e-05,9.29e-06,0.0,0 STARLINK-4264,1 52993U 22076H   22335.52807828  .00000929  00000-0  76454-4 0  9990,2 52993  53.2179  54.9355 0002584  26.4608 333.6515 15.08838233 22565,6917.886,95.438,541.538,537.9630000000002,0.0
52993.0,STARLINK-4264,PAYLOAD,2022-12-02 06:09:40,15.08837005,0.0002714,53.2169,51.6637,21.7882,338.3225,5.2949e-05,5.54e-06,0.0,0 STARLINK-4264,1 52993U 22076H   22336.25672263  .00000554  00000-0  52949-4 0  9991,2 52993  53.2169  51.6637 0002714  21.7882 338.3225 15.08837005 22676,6917.89,95.438,541.632,537.877,0.0
52993.0,STARLINK-4264,PAYLOAD,2022-12-02 22:03:32,15.08837842,0.00027,53.2168,48.6902,24.5935,335.5185,9.4301e-05,1.213e-05,0.0,0 STARLINK-4264,1 52993U 22076H   22336.91912171  .00001213  00000-0  94301-4 0  9990,2 52993  53.2168  48.6902 0002700  24.5935 335.5185 15.08837842 23248,6917.887,95.438,541.62,537.884,0.0
52993.0,STARLINK-4264,PAYLOAD,2022-12-03 06:00:28,15.08832533,0.0002674,53.2184,47.2038,29.7463,330.3681,9.6142e-06,-1.36e-06,0.0,0 STARLINK-4264,1 52993U 22076H   22337.25032947 -.00000136  00000-0  96142-5 0  9992,2 52993  53.2184  47.2038 0002674  29.7463 330.3681 15.08832533 23295,6917.903,95.438,541.618,537.918,0.0
52993.0,STARLINK-4264,PAYLOAD,2022-12-03 13:57:24,15.08831702,0.000272,53.2175,45.7165,29.4601,330.6544,1.2665e-05,-8.7e-07,0.0,0 STARLINK-4264,1 52993U 22076H   22337.58153132 -.00000087  00000-0  12665-4 0  9990,2 52993  53.2175  45.7165 0002720  29.4601 330.6544 15.08831702 22873,6917.906,95.438,541.6519999999998,537.889,0.0
52993.0,STARLINK-4264,PAYLOAD,2022-12-04 04:15:51,15.08842202,0.0002788,53.218,43.0401,28.8764,331.2382,5.9987e-05,6.66e-06,0.0,0 STARLINK-4264,1 52993U 22076H   22338.17768436  .00000666  00000-0  59987-4 0  9995,2 52993  53.2180  43.0401 0002788  28.8764 331.2382 15.08842202 23437,6917.874,95.437,541.6669999999998,537.81,0.0
52993.0,STARLINK-4264,PAYLOAD,2022-12-04 10:37:23,15.08848395,0.0002765,53.2175,41.8508,28.7902,331.3242,0.00010807,1.432e-05,0.0,0 STARLINK-4264,1 52993U 22076H   22338.44263802  .00001432  00000-0  10807-3 0  9991,2 52993  53.2175  41.8508 0002765  28.7902 331.3242 15.08848395 23001,6917.855,95.437,541.633,537.807,0.0
52993.0,STARLINK-4264,PAYLOAD,2022-12-04 13:48:10,15.08852993,0.0002917,53.2171,41.2578,21.8608,338.2508,-0.0001293,-2.347e-05,0.0,0 STARLINK-4264,1 52993U 22076H   22338.57512101 -.00002347  00000-0 -12930-3 0  9991,2 52993  53.2171  41.2578 0002917  21.8608 338.2508 15.08852993 23026,6917.840999999999,95.437,541.724,537.688,0.0
52993.0,STARLINK-4264,PAYLOAD,2022-12-05 10:28:11,15.08839516,0.0002723,53.218,37.3898,29.4485,330.666,9.9251e-05,1.291e-05,0.0,0 STARLINK-4264,1 52993U 22076H   22339.43624350  .00001291  00000-0  99251-4 0  9994,2 52993  53.2180  37.3898 0002723  29.4485 330.6660 15.08839516 23626,6917.882,95.438,541.631,537.863,0.0
52993.0,STARLINK-4264,PAYLOAD,2022-12-05 15:14:20,15.08843639,0.0002798,53.218,36.4978,30.2958,329.8195,0.00014201,1.973e-05,0.0,0 STARLINK-4264,1 52993U 22076H   22339.63496003  .00001973  00000-0  14201-3 0  9996,2 52993  53.2180  36.4978 0002798  30.2958 329.8195 15.08843639 23187,6917.869000000002,95.437,541.67,537.799,0.0
52993.0,STARLINK-4264,PAYLOAD,2022-12-05 21:35:52,15.08849021,0.0002875,53.2176,35.3094,29.3155,330.7998,0.00013745,1.9e-05,0.0,0 STARLINK-4264,1 52993U 22076H   22339.89991617  .00001900  00000-0  13745-3 0  9997,2 52993  53.2176  35.3094 0002875  29.3155 330.7998 15.08849021 23692,6917.853,95.437,541.707,537.729,0.0
52993.0,STARLINK-4264,PAYLOAD,2022-12-06 13:29:44,15.08842853,0.0003052,53.2188,32.3384,27.5965,332.5189,1.243e-05,-9.1e-07,0.0,0 STARLINK-4264,1 52993U 22076H   22340.56232133 -.00000091  00000-0  12430-4 0  9996,2 52993  53.2188  32.3384 0003052  27.5965 332.5189 15.08842853 23790,6917.871999999999,95.437,541.8480000000002,537.625,0.0
52993.0,STARLINK-4264,PAYLOAD,2022-12-06 15:05:07,15.08841341,0.0002673,53.219,32.0379,24.6776,335.4344,0.00011955,1.615e-05,0.0,0 STARLINK-4264,1 52993U 22076H   22340.62855863  .00001615  00000-0  11955-3 0  9996,2 52993  53.2190  32.0379 0002673  24.6776 335.4344 15.08841341 23336,6917.876,95.437,541.59,537.8919999999998,0.0
52993.0,STARLINK-4264,PAYLOAD,2022-12-07 03:48:13,15.08832655,0.0002661,53.2179,29.6569,31.787,328.3283,-2.1539e-05,-6.31e-06,0.0,0 STARLINK-4264,1 52993U 22076H   22341.15848998 -.00000631  00000-0 -21539-4 0  9995,2 52993  53.2179  29.6569 0002661  31.7870 328.3283 15.08832655 23888,6917.903,95.438,541.609,537.927,0.0
52993.0,STARLINK-4264,PAYLOAD,2022-12-07 19:42:05,15.08835228,0.0002692,53.2186,26.6854,25.66,334.4525,-5.3097e-05,-1.133e-05,0.0,0 STARLINK-4264,1 52993U 22076H   22341.82089305 -.00001133  00000-0 -53097-4 0  9990,2 52993  53.2186  26.6854 0002692  25.6600 334.4525 15.08835228 23513,6917.895,95.438,541.622,537.898,0.0
52993.0,STARLINK-4264,PAYLOAD,2022-12-08 03:38:59,15.08850365,0.0002856,53.2188,25.199,28.798,331.3169,7.4852e-05,9.03e-06,0.0,0 STARLINK-4264,1 52993U 22076H   22342.15208039  .00000903  00000-0  74852-4 0  9998,2 52993  53.2188  25.1990 0002856  28.7980 331.3169 15.08850365 24034,6917.849,95.437,541.689,537.738,0.0
52993.0,STARLINK-4264,PAYLOAD,2022-12-08 10:00:32,15.08841889,0.0003012,53.2189,24.011,28.4422,331.6734,7.1955e-05,8.57e-06,0.0,0 STARLINK-4264,1 52993U 22076H   22342.41704660  .00000857  00000-0  71955-4 0  9997,2 52993  53.2189  24.0110 0003012  28.4422 331.6734 15.08841889 23604,6917.875,95.437,541.823,537.656,0.0
